[
  {
    "OBJECT_NAME": "STARLINK-6065",
    "OBJECT_ID": "2023-078AX",
    "EPOCH": "2025-05-06T02:34:45.215328",
    "MEAN_MOTION": 14.98333537,
    "ECCENTRICITY": 0.0002913,
    "INCLINATION": 70.0004,
    "RA_OF_ASC_NODE": 19.8664,
    "ARG_OF_PERICENTER": 267.9174,
    "MEAN_ANOMALY": 92.1651,
    "EPHEMERIS_TYPE": 0,
    "CLASSIFICATION_TYPE": "U",
    "NORAD_CAT_ID": 56812,
    "ELEMENT_SET_NO": 999,
    "REV_AT_EPOCH": 10736,
    "BSTAR": 0.00012529,
    "MEAN_MOTION_DOT": 1.402e-05,
    "MEAN_MOTION_DDOT": 0
  },
  {
    "OBJECT_NAME": "STARLINK-6056",
    "OBJECT_ID": "2023-078AY",
    "EPOCH": "2025-05-05T20:28:34.756320",
    "MEAN_MOTION": 14.983271,
    "ECCENTRICITY": 0.0002998,
    "INCLINATION": 70.0008,
    "RA_OF_ASC_NODE": 40.4477,
    "ARG_OF_PERICENTER": 270.7884,
    "MEAN_ANOMALY": 89.2931,
    "EPHEMERIS_TYPE": 0,
    "CLASSIFICATION_TYPE": "U",
    "NORAD_CAT_ID": 56813,
    "ELEMENT_SET_NO": 999,
    "REV_AT_EPOCH": 10657,
    "BSTAR": 6.5767e-05,
    "MEAN_MOTION_DOT": 6.92e-06,
    "MEAN_MOTION_DDOT": 0
  },
  {
    "OBJECT_NAME": "STARLINK-6059",
    "OBJECT_ID": "2023-078AZ",
    "EPOCH": "2025-05-05T20:40:21.650016",
    "MEAN_MOTION": 14.98332438,
    "ECCENTRICITY": 0.0002536,
    "INCLINATION": 70.0013,
    "RA_OF_ASC_NODE": 40.476,
    "ARG_OF_PERICENTER": 274.9902,
    "MEAN_ANOMALY": 85.0967,
    "EPHEMERIS_TYPE": 0,
    "CLASSIFICATION_TYPE": "U",
    "NORAD_CAT_ID": 56814,
    "ELEMENT_SET_NO": 999,
    "REV_AT_EPOCH": 10657,
    "BSTAR": -4.7194e-05,
    "MEAN_MOTION_DOT": -6.56e-06,
    "MEAN_MOTION_DDOT": 0
  },
  {
    "OBJECT_NAME": "STARLINK-6067",
    "OBJECT_ID": "2023-078BB",
    "EPOCH": "2025-05-05T19:51:57.122208",
    "MEAN_MOTION": 14.98320312,
    "ECCENTRICITY": 0.0002875,
    "INCLINATION": 70.0008,
    "RA_OF_ASC_NODE": 20.4897,
    "ARG_OF_PERICENTER": 268.2634,
    "MEAN_ANOMALY": 91.8195,
    "EPHEMERIS_TYPE": 0,
    "CLASSIFICATION_TYPE": "U",
    "NORAD_CAT_ID": 56816,
    "ELEMENT_SET_NO": 999,
    "REV_AT_EPOCH": 10706,
    "BSTAR": 0.00017642,
    "MEAN_MOTION_DOT": 2.012e-05,
    "MEAN_MOTION_DDOT": 0
  },
  {
    "OBJECT_NAME": "STARLINK-5982",
    "OBJECT_ID": "2023-078BC",
    "EPOCH": "2025-05-05T19:16:14.908512",
    "MEAN_MOTION": 14.98329788,
    "ECCENTRICITY": 0.0002879,
    "INCLINATION": 70.0014,
    "RA_OF_ASC_NODE": 40.6742,
    "ARG_OF_PERICENTER": 269.4457,
    "MEAN_ANOMALY": 90.6373,
    "EPHEMERIS_TYPE": 0,
    "CLASSIFICATION_TYPE": "U",
    "NORAD_CAT_ID": 56817,
    "ELEMENT_SET_NO": 999,
    "REV_AT_EPOCH": 10656,
    "BSTAR": 1.029e-05,
    "MEAN_MOTION_DOT": 3e-07,
    "MEAN_MOTION_DDOT": 0
  },
  {
    "OBJECT_NAME": "STARLINK-6028",
    "OBJECT_ID": "2023-078BD",
    "EPOCH": "2025-05-05T20:28:20.051904",
    "MEAN_MOTION": 14.98331914,
    "ECCENTRICITY": 0.0002586,
    "INCLINATION": 70.0005,
    "RA_OF_ASC_NODE": 40.4438,
    "ARG_OF_PERICENTER": 270.9829,
    "MEAN_ANOMALY": 89.1034,
    "EPHEMERIS_TYPE": 0,
    "CLASSIFICATION_TYPE": "U",
    "NORAD_CAT_ID": 56818,
    "ELEMENT_SET_NO": 999,
    "REV_AT_EPOCH": 10726,
    "BSTAR": 7.8062e-05,
    "MEAN_MOTION_DOT": 8.39e-06,
    "MEAN_MOTION_DDOT": 0
  },
  {
    "OBJECT_NAME": "STARLINK-30119",
    "OBJECT_ID": "2023-079A",
    "EPOCH": "2025-05-05T21:40:39.602496",
    "MEAN_MOTION": 15.02531573,
    "ECCENTRICITY": 0.0001287,
    "INCLINATION": 43.005,
    "RA_OF_ASC_NODE": 339.9404,
    "ARG_OF_PERICENTER": 266.0397,
    "MEAN_ANOMALY": 94.0298,
    "EPHEMERIS_TYPE": 0,
    "CLASSIFICATION_TYPE": "U",
    "NORAD_CAT_ID": 56823,
    "ELEMENT_SET_NO": 999,
    "REV_AT_EPOCH": 10701,
    "BSTAR": 8.8012e-05,
    "MEAN_MOTION_DOT": 9.85e-06,
    "MEAN_MOTION_DDOT": 0
  },
  {
    "OBJECT_NAME": "STARLINK-30120",
    "OBJECT_ID": "2023-079B",
    "EPOCH": "2025-05-05T23:11:35.962944",
    "MEAN_MOTION": 15.0253632,
    "ECCENTRICITY": 0.0001768,
    "INCLINATION": 43.0052,
    "RA_OF_ASC_NODE": 339.5564,
    "ARG_OF_PERICENTER": 277.6029,
    "MEAN_ANOMALY": 82.4613,
    "EPHEMERIS_TYPE": 0,
    "CLASSIFICATION_TYPE": "U",
    "NORAD_CAT_ID": 56824,
    "ELEMENT_SET_NO": 999,
    "REV_AT_EPOCH": 10627,
    "BSTAR": 0.00033667,
    "MEAN_MOTION_DOT": 4.347e-05,
    "MEAN_MOTION_DDOT": 0
  },
  {
    "OBJECT_NAME": "STARLINK-30084",
    "OBJECT_ID": "2023-079C",
    "EPOCH": "2025-05-05T23:06:48.462624",
    "MEAN_MOTION": 15.02539554,
    "ECCENTRICITY": 0.0001524,
    "INCLINATION": 43.0023,
    "RA_OF_ASC_NODE": 339.5281,
    "ARG_OF_PERICENTER": 288.6052,
    "MEAN_ANOMALY": 71.4625,
    "EPHEMERIS_TYPE": 0,
    "CLASSIFICATION_TYPE": "U",
    "NORAD_CAT_ID": 56825,
    "ELEMENT_SET_NO": 999,
    "REV_AT_EPOCH": 10626,
    "BSTAR": 0.00015148,
    "MEAN_MOTION_DOT": 1.843e-05,
    "MEAN_MOTION_DDOT": 0
  },
  {
    "OBJECT_NAME": "STARLINK-30114",
    "OBJECT_ID": "2023-079D",
    "EPOCH": "2025-05-05T07:33:27.469728",
    "MEAN_MOTION": 15.02534736,
    "ECCENTRICITY": 0.0001165,
    "INCLINATION": 43.0049,
    "RA_OF_ASC_NODE": 343.0746,
    "ARG_OF_PERICENTER": 270.0784,
    "MEAN_ANOMALY": 89.9924,
    "EPHEMERIS_TYPE": 0,
    "CLASSIFICATION_TYPE": "U",
    "NORAD_CAT_ID": 56826,
    "ELEMENT_SET_NO": 999,
    "REV_AT_EPOCH": 10681,
    "BSTAR": 2.6024e-05,
    "MEAN_MOTION_DOT": 1.48e-06,
    "MEAN_MOTION_DDOT": 0
  },
  {
    "OBJECT_NAME": "STARLINK-30151",
    "OBJECT_ID": "2023-079E",
    "EPOCH": "2025-05-05T21:21:28.908288",
    "MEAN_MOTION": 15.02528223,
    "ECCENTRICITY": 0.000112,
    "INCLINATION": 43.0055,
    "RA_OF_ASC_NODE": 339.8356,
    "ARG_OF_PERICENTER": 273.0236,
    "MEAN_ANOMALY": 87.0478,
    "EPHEMERIS_TYPE": 0,
    "CLASSIFICATION_TYPE": "U",
    "NORAD_CAT_ID": 56827,
    "ELEMENT_SET_NO": 999,
    "REV_AT_EPOCH": 10658,
    "BSTAR": 4.0851e-05,
    "MEAN_MOTION_DOT": 3.48e-06,
    "MEAN_MOTION_DDOT": 0
  },
  {
    "OBJECT_NAME": "STARLINK-30152",
    "OBJECT_ID": "2023-079F",
    "EPOCH": "2025-05-05T21:16:40.553472",
    "MEAN_MOTION": 15.02541601,
    "ECCENTRICITY": 0.0001161,
    "INCLINATION": 43.0042,
    "RA_OF_ASC_NODE": 339.8166,
    "ARG_OF_PERICENTER": 269.1947,
    "MEAN_ANOMALY": 90.8762,
    "EPHEMERIS_TYPE": 0,
    "CLASSIFICATION_TYPE": "U",
    "NORAD_CAT_ID": 56828,
    "ELEMENT_SET_NO": 999,
    "REV_AT_EPOCH": 10658,
    "BSTAR": 0.00012682,
    "MEAN_MOTION_DOT": 1.51e-05,
    "MEAN_MOTION_DDOT": 0
  },
  {
    "OBJECT_NAME": "STARLINK-30128",
    "OBJECT_ID": "2023-079K",
    "EPOCH": "2025-05-05T19:00:13.364640",
    "MEAN_MOTION": 15.02544764,
    "ECCENTRICITY": 9.62e-05,
    "INCLINATION": 43.0044,
    "RA_OF_ASC_NODE": 314.4069,
    "ARG_OF_PERICENTER": 269.4849,
    "MEAN_ANOMALY": 90.5883,
    "EPHEMERIS_TYPE": 0,
    "CLASSIFICATION_TYPE": "U",
    "NORAD_CAT_ID": 56832,
    "ELEMENT_SET_NO": 999,
    "REV_AT_EPOCH": 10046,
    "BSTAR": -3.907e-05,
    "MEAN_MOTION_DOT": -7.31e-06,
    "MEAN_MOTION_DDOT": 0
  },
  {
    "OBJECT_NAME": "STARLINK-30131",
    "OBJECT_ID": "2023-079L",
    "EPOCH": "2025-05-05T21:55:44.635584",
    "MEAN_MOTION": 15.02538937,
    "ECCENTRICITY": 0.0001634,
    "INCLINATION": 43.0035,
    "RA_OF_ASC_NODE": 313.7625,
    "ARG_OF_PERICENTER": 274.7466,
    "MEAN_ANOMALY": 85.3189,
    "EPHEMERIS_TYPE": 0,
    "CLASSIFICATION_TYPE": "U",
    "NORAD_CAT_ID": 56833,
    "ELEMENT_SET_NO": 999,
    "REV_AT_EPOCH": 10656,
    "BSTAR": 9.5985e-05,
    "MEAN_MOTION_DOT": 1.093e-05,
    "MEAN_MOTION_DDOT": 0
  }
]