STARLINK-6065           
1 56812U 23078AX  25126.10746777  .00001402  00000+0  12529-3 0  9995
2 56812  70.0004  19.8664 0002913 267.9174  92.1651 14.98333537107367
STARLINK-6056           
1 56813U 23078AY  25125.85318005  .00000692  00000+0  65767-4 0  9999
2 56813  70.0008  40.4477 0002998 270.7884  89.2931 14.98327100106576
STARLINK-6059           
1 56814U 23078AZ  25125.86136169 -.00000656  00000+0 -47194-4 0  9996
2 56814  70.0013  40.4760 0002536 274.9902  85.0967 14.98332438106576
STARLINK-6067           
1 56816U 23078BB  25125.82774447  .00002012  00000+0  17642-3 0  9991
2 56816  70.0008  20.4897 0002875 268.2634  91.8195 14.98320312107066
STARLINK-5982           
1 56817U 23078BC  25125.80295033  .00000030  00000+0  10290-4 0  9990
2 56817  70.0014  40.6742 0002879 269.4457  90.6373 14.98329788106562
STARLINK-6028           
1 56818U 23078BD  25125.85300986  .00000839  00000+0  78062-4 0  9998
2 56818  70.0005  40.4438 0002586 270.9829  89.1034 14.98331914107267
STARLINK-30119          
1 56823U 23079A   25125.90323614  .00000985  00000+0  88012-4 0  9992
2 56823  43.0050 339.9404 0001287 266.0397  94.0298 15.02531573107014
STARLINK-30120          
1 56824U 23079B   25125.96638846  .00004347  00000+0  33667-3 0  9996
2 56824  43.0052 339.5564 0001768 277.6029  82.4613 15.02536320106278
STARLINK-30084          
1 56825U 23079C   25125.96306091  .00001843  00000+0  15148-3 0  9993
2 56825  43.0023 339.5281 0001524 288.6052  71.4625 15.02539554106263
STARLINK-30114          
1 56826U 23079D   25125.31490127  .00000148  00000+0  26024-4 0  9990
2 56826  43.0049 343.0746 0001165 270.0784  89.9924 15.02534736106810
STARLINK-30151          
1 56827U 23079E   25125.88991792  .00000348  00000+0  40851-4 0  9993
2 56827  43.0055 339.8356 0001120 273.0236  87.0478 15.02528223106585
STARLINK-30152          
1 56828U 23079F   25125.88658048  .00001510  00000+0  12682-3 0  9990
2 56828  43.0042 339.8166 0001161 269.1947  90.8762 15.02541601106584
STARLINK-30128          
1 56832U 23079K   25125.79182135 -.00000731  00000+0 -39070-4 0  9991
2 56832  43.0044 314.4069 0000962 269.4849  90.5883 15.02544764100469
STARLINK-30131          
1 56833U 23079L   25125.91371106  .00001093  00000+0  95985-4 0  9991
2 56833  43.0035 313.7625 0001634 274.7466  85.3189 15.02538937106564
